CZ-2D R/B               
1 28738U 05024B   26102.79600635  .00031704  00000+0  34433-3 0  9990
2 28738  97.3563 119.2715 0002676 217.1883 142.9191 15.63435712145105
ALOS (DAICHI)           
1 28931U 06002A   26102.81240081  .00000790  00000+0  14027-3 0  9998
2 28931  98.1270  58.6118 0001489 114.0949 246.0413 14.69915964 78493
H-2A R/B                
1 28932U 06002B   26102.84718547  .00005997  00000+0  29509-3 0  9994
2 28932  98.2471 252.8426 0052582 125.0419 235.5761 15.17212120 99616
RESURS-DK 1             
1 29228U 06021A   26102.85131912  .00001241  00000+0  76372-4 0  9999
2 29228  69.9301 148.6463 0002366  12.4074 347.7149 15.12943001 92697
CZ-4B R/B               
1 29507U 06046C   26102.84145025  .00002684  00000+0  13639-3 0  9993
2 29507  97.5530 147.6538 0034024 147.0025 213.3341 15.17262916 65222
CZ-2C R/B               
1 31114U 07010B   26102.82381209  .00000081  00000+0  55931-4 0  9997
2 31114  98.4017 214.3978 0058801 193.8507 166.1060 14.20259225984564
COSMO-SKYMED 1          
1 31598U 07023A   26102.82814131  .00001557  00000+0  14128-3 0  9993
2 31598  97.8888 294.1411 0001597  88.3133 271.8271 14.96794724 20010
COSMOS 2428             
1 31792U 07029A   26102.51629958 -.00000105  00000+0 -30458-4 0  9997
2 31792  70.9405 132.3460 0009581 241.2677 118.7482 14.12948574968874
SL-16 R/B               
1 31793U 07029B   26102.44701166 -.00000204  00000+0 -80685-4 0  9999
2 31793  70.9728 101.4235 0002827 273.6549 238.3878 14.14841931970145
KORONAS-FOTON           
1 33504U 09003A   26102.66393699  .00010220  00000+0  22067-3 0  9993
2 33504  82.4290 240.5282 0010945  38.1408 322.0612 15.44307036950988
CZ-2C R/B               
1 37731U 11030B   26102.46440215  .00000743  00000+0  99964-4 0  9997
2 37731  97.8598  59.0675 0051093 239.6814 233.6070 14.81335734795092
H-2A R/B                
1 38341U 12025E   26102.78959117  .00002104  00000+0  19320-3 0  9991
2 38341  98.4782  72.5849 0043793 199.3911 160.5643 14.95394807753317
SHIJIAN-16 (SJ-16)      
1 39358U 13057A   26102.88441176  .00001169  00000+0  11657-3 0  9993
2 39358  74.9706 120.3503 0015671  24.0971 336.0947 14.92457931676602
SL-4 R/B                
1 39679U 14021B   26102.44225363  .00008976  00000+0  19653-3 0  9998
2 39679  51.6067 172.4674 0093431 226.3187 133.0028 15.40417357661479
ALOS-2                  
1 39766U 14029A   26102.80579712 -.00000291  00000+0 -32084-4 0  9991
2 39766  97.9190 200.9068 0001799  89.5827 270.5591 14.79472550641912
YAOGAN-29               
1 41038U 15069A   26102.86747648 -.00000241  00000+0 -22993-4 0  9995
2 41038  98.0101 131.3815 0000761 160.5831 199.5411 14.83031689560944
ASTRO-H (HITOMI)        
1 41337U 16012A   26102.80663328  .00001800  00000+0  10169-3 0  9993
2 41337  30.9982 136.3432 0009614 314.2191  45.7657 15.10220428557392
HXMT (HUIYAN)           
1 42758U 17034A   26102.67145007  .00003232  00000+0  16641-3 0  9992
2 42758  43.0135 187.6829 0030317  89.5079 270.9243 15.17914897487702
SAOCOM 1A               
1 43641U 18076A   26102.85330429 -.00000106  00000+0 -67788-5 0  9994
2 43641  97.8910 290.5441 0001407  88.4826 271.6548 14.82144253406420
H-2A R/B                
1 43682U 18084L   26102.86355044  .00011972  00000+0  27307-3 0  9991
2 43682  98.8684 327.5888 0023069 263.8845  95.9769 15.42841005411040
SAOCOM 1B               
1 46265U 20059A   26102.81707095  .00000795  00000+0  10647-3 0  9998
2 46265  97.8897 289.6033 0001485  84.8390 275.2992 14.82160125303804
CSS (TIANHE)            
1 48274U 21035A   26102.74053911  .00018374  00000+0  20519-3 0  9999
2 48274  41.4686   0.7113 0005148 194.4554 165.6139 15.62321602282931
COSMOS 2550             
1 48865U 21056A   26102.88171720 -.00000172  00000+0  60704-6 0  9993
2 48865  67.1429 297.4537 0008360 269.2577  90.7620 15.33824952268703
CZ-2C R/B               
1 52794U 22058K   26102.62300413  .00024355  00000+0  32562-3 0  9993
2 52794  50.1869 143.3919 0040564 346.2158  13.7702 15.56878415215419
CZ-2C R/B               
1 54039U 22132E   26101.90974891  .00038075  00000+0  38412-3 0  9991
2 54039  97.2952 106.3164 0014132 334.5743  25.4820 15.65153466195567
GSLV R/B                
1 54149U 22138AN  26102.68089544  .00001970  00000+0  16800-3 0  9998
2 54149  87.3838 154.9779 0022718  34.4456 325.8242 14.96983858189016
XRISM                   
1 57800U 23137A   26102.57916861  .00003363  00000+0  18607-3 0  9999
2 57800  31.0023  64.3942 0007595  19.3316 340.7610 15.11899093142923
ACS3                    
1 59588U 24077B   26102.82336047  .00006281  00000+0  48932-2 0  9993
2 59588  97.1893  36.2653 0072150   3.7162 356.4524 13.91332473 98948
HTV-X1                  
1 66174U 25241A   26102.75534374  .00004229  00000+0  14371-3 0  9992
2 66174  51.6354 268.8123 0007456 305.5248  54.5037 15.32628602 26163
SZ-21 MODULE            
1 66515U 25246C   26102.72482247  .00028096  00000+0  21620-3 0  9997
2 66515  41.4755 353.4154 0004362 262.7697  97.2650 15.71351084 23425

ISS (ZARYA)             
1 25544U 98067A   26102.84428288  .00005354  00000+0  10566-3 0  9992
2 25544  51.6320 263.4801 0006461 305.2591  54.7792 15.48888784561620
POISK                   
1 36086U 09060A   26102.84428288  .00005354  00000+0  10566-3 0  9990
2 36086  51.6320 263.4801 0006461 305.2591  54.7792 15.48888784561498
CSS (TIANHE)            
1 48274U 21035A   26102.74053911  .00018374  00000+0  20519-3 0  9999
2 48274  41.4686   0.7113 0005148 194.4554 165.6139 15.62321602282931
ISS (NAUKA)             
1 49044U 21066A   26102.84428288  .00005354  00000+0  10566-3 0  9998
2 49044  51.6320 263.4801 0006461 305.2591  54.7792 15.48888784561531
FREGAT DEB              
1 49271U 11037PF  26102.68003360  .00000953  00000+0  15504-2 0  9995
2 49271  51.6394 198.6754 0949485 137.3303 230.5401 12.40989215216917
CSS (WENTIAN)           
1 53239U 22085A   26102.16522189  .00018582  00000+0  20764-3 0  9999
2 53239  41.4686   4.2206 0004971 190.5766 169.4970 15.62300157283135
CSS (MENGTIAN)          
1 54216U 22143A   26102.74053911  .00018374  00000+0  20519-3 0  9993
2 54216  41.4686   0.7113 0005148 194.4554 165.6139 15.62321602283418
TIANZHOU-9              
1 64786U 25149A   26102.74053911  .00018374  00000+0  20519-3 0  9995
2 64786  41.4686   0.7113 0005148 194.4554 165.6139 15.62321602283411
PROGRESS-MS 32          
1 65586U 25204A   26101.94100262  .00005402  00000+0  10657-3 0  9999
2 65586  51.6326 267.9482 0006451 301.5882  58.4476 15.48877690554504
YOTSUBA-KULOVER         
1 65941U 98067XN  26102.66266637  .01323670  12609-2  10497-2 0  9993
2 65941  51.6097 238.0367 0011673 312.5164  47.4865 16.13988924 28919
BOTAN                   
1 65943U 98067XQ  26102.75421470  .01001867  59450-3  10491-2 0  9994
2 65943  51.6139 237.9382 0011611 312.9493  47.0546 16.09736857 28928
HRC MONOBLOCK CAMERA    
1 66052U 98067XR  26102.69077182  .00044215  00000+0  42502-3 0  9991
2 66052  51.6263 253.4448 0004002 268.6695  91.3842 15.66113141 27715
HTV-X1                  
1 66174U 25241A   26102.75534374  .00004229  00000+0  14371-3 0  9992
2 66174  51.6354 268.8123 0007456 305.5248  54.5037 15.32628602 26163
SZ-21 MODULE            
1 66515U 25246C   26102.72482247  .00028096  00000+0  21620-3 0  9997
2 66515  41.4755 353.4154 0004362 262.7697  97.2650 15.71351084 23425
SHENZHOU-22             
1 66645U 25272A   26102.74053911  .00018374  00000+0  20519-3 0  9998
2 66645  41.4686   0.7113 0005148 194.4554 165.6139 15.62321602283417
SOYUZ-MS 28             
1 66664U 25275A   26102.84428288  .00005354  00000+0  10566-3 0  9991
2 66664  51.6320 263.4801 0006461 305.2591  54.7792 15.48888784561774
DUPLEX                  
1 66906U 98067XS  26102.72394150  .00024739  00000+0  32308-3 0  9992
2 66906  51.6279 258.9272 0003754 281.1810  78.8760 15.58507595 20439
ISS OBJECT XT           
1 66907U 98067XT  26102.82065920  .00264374  00000+0  10606-2 0  9991
2 66907  51.6194 249.7505 0009547 300.3872  59.6188 15.85145950 20569
ISS OBJECT XU           
1 66908U 98067XU  26102.68735125  .00261390  00000+0  10301-2 0  9994
2 66908  51.6195 250.3561 0009403 297.8695  62.1355 15.85524808 20541
SILVERSAT               
1 66909U 98067XV  26101.44198092  .00588813  15493-3  14302-2 0  9997
2 66909  51.6155 254.7584 0011917 300.1845  59.7981 15.95566356 20372
ISS OBJECT XW           
1 66910U 98067XW  26101.71105722  .00257233  00000+0  12146-2 0  9994
2 66910  51.6192 255.8381 0008919 287.8602  72.1427 15.81724614 20385
ISS OBJECT XX           
1 66911U 98067XX  26101.45822411  .06931681  12208-4  13558-2 0  9995
2 66911  51.5990 251.7761 0012203 297.7475  62.2310 16.30633237 20406
ISS OBJECT XY           
1 66912U 98067XY  26102.69316897  .00095328  00000+0  72734-3 0  9996
2 66912  51.6243 254.1963 0006078 290.5576  69.4769 15.71410289 20485
KNACKSAT-2              
1 67683U 98067XZ  26102.82606475  .00027598  00000+0  41187-3 0  9993
2 67683  51.6302 261.8605 0011219 314.2598  45.7471 15.54776165 10098
CORAL                   
1 67684U 98067YA  26102.70991672  .00069277  00000+0  81674-3 0  9992
2 67684  51.6277 261.0828 0014654 305.4884  54.4741 15.60592917 10090
GXIBA-1                 
1 67685U 98067YB  26102.80995021  .00032197  00000+0  46623-3 0  9992
2 67685  51.6293 261.7532 0013149 311.1274  48.8581 15.55488952 10099
UITMSAT-2               
1 67686U 98067YC  26102.72003338  .00042359  00000+0  58189-3 0  9996
2 67686  51.6290 261.9051 0010157 288.1908  71.7978 15.56822259 10085
HMU-SAT2                
1 67687U 98067YD  26102.75330223  .00030548  00000+0  44862-3 0  9996
2 67687  51.6307 262.1285 0009702 290.3141  69.6806 15.55178097 10006
LEOPARD                 
1 67688U 98067YE  26102.73174160  .00037885  00000+0  53345-3 0  9998
2 67688  51.6291 261.9837 0009753 288.6185  71.3746 15.56211293 10003
